[{"OBJECT_NAME":"KUIPER-00047","OBJECT_ID":"2025-134H","EPOCH":"2026-03-29T03:25:01.853184","MEAN_MOTION":14.83621742,"ECCENTRICITY":0.0001411,"INCLINATION":51.8985,"RA_OF_ASC_NODE":129.6548,"ARG_OF_PERICENTER":115.3246,"MEAN_ANOMALY":244.7864,"EPHEMERIS_TYPE":0,"CLASSIFICATION_TYPE":"U","NORAD_CAT_ID":64507,"ELEMENT_SET_NO":999,"REV_AT_EPOCH":4319,"BSTAR":0.00060968,"MEAN_MOTION_DOT":4.853e-5,"MEAN_MOTION_DDOT":0},{"OBJECT_NAME":"KUIPER-00048","OBJECT_ID":"2025-134J","EPOCH":"2026-03-29T02:20:32.565696","MEAN_MOTION":14.79884252,"ECCENTRICITY":7.25e-5,"INCLINATION":51.8988,"RA_OF_ASC_NODE":129.7546,"ARG_OF_PERICENTER":63.9837,"MEAN_ANOMALY":296.12,"EPHEMERIS_TYPE":0,"CLASSIFICATION_TYPE":"U","NORAD_CAT_ID":64508,"ELEMENT_SET_NO":999,"REV_AT_EPOCH":4319,"BSTAR":0.00054943,"MEAN_MOTION_DOT":3.965e-5,"MEAN_MOTION_DDOT":0},{"OBJECT_NAME":"KUIPER-00049","OBJECT_ID":"2025-134K","EPOCH":"2026-03-28T21:03:23.381280","MEAN_MOTION":14.83561867,"ECCENTRICITY":7.46e-5,"INCLINATION":51.9006,"RA_OF_ASC_NODE":143.4857,"ARG_OF_PERICENTER":216.7802,"MEAN_ANOMALY":143.3111,"EPHEMERIS_TYPE":0,"CLASSIFICATION_TYPE":"U","NORAD_CAT_ID":64509,"ELEMENT_SET_NO":999,"REV_AT_EPOCH":4298,"BSTAR":0.00058949,"MEAN_MOTION_DOT":4.678e-5,"MEAN_MOTION_DDOT":0},{"OBJECT_NAME":"KUIPER-00050","OBJECT_ID":"2025-134L","EPOCH":"2026-03-29T04:00:01.999584","MEAN_MOTION":14.8198574,"ECCENTRICITY":5.49e-5,"INCLINATION":51.8988,"RA_OF_ASC_NODE":124.4102,"ARG_OF_PERICENTER":136.8018,"MEAN_ANOMALY":31.7276,"EPHEMERIS_TYPE":0,"CLASSIFICATION_TYPE":"U","NORAD_CAT_ID":64510,"ELEMENT_SET_NO":999,"REV_AT_EPOCH":413,"BSTAR":-0.0014905,"MEAN_MOTION_DOT":-0.00012138,"MEAN_MOTION_DDOT":0},{"OBJECT_NAME":"KUIPER-00051","OBJECT_ID":"2025-134M","EPOCH":"2026-03-29T02:53:50.270208","MEAN_MOTION":14.79943702,"ECCENTRICITY":0.0001147,"INCLINATION":51.8999,"RA_OF_ASC_NODE":139.682,"ARG_OF_PERICENTER":89.2205,"MEAN_ANOMALY":270.8889,"EPHEMERIS_TYPE":0,"CLASSIFICATION_TYPE":"U","NORAD_CAT_ID":64511,"ELEMENT_SET_NO":999,"REV_AT_EPOCH":4305,"BSTAR":0.0005568,"MEAN_MOTION_DOT":4.027e-5,"MEAN_MOTION_DDOT":0},{"OBJECT_NAME":"KUIPER-00053","OBJECT_ID":"2025-134P","EPOCH":"2026-03-29T03:45:45.227808","MEAN_MOTION":14.7998258,"ECCENTRICITY":4.44e-5,"INCLINATION":51.9005,"RA_OF_ASC_NODE":137.0105,"ARG_OF_PERICENTER":305.2531,"MEAN_ANOMALY":54.8389,"EPHEMERIS_TYPE":0,"CLASSIFICATION_TYPE":"U","NORAD_CAT_ID":64513,"ELEMENT_SET_NO":999,"REV_AT_EPOCH":4309,"BSTAR":0.00035863,"MEAN_MOTION_DOT":2.517e-5,"MEAN_MOTION_DDOT":0},{"OBJECT_NAME":"KUIPER-00054","OBJECT_ID":"2025-134Q","EPOCH":"2026-03-29T03:54:05.603904","MEAN_MOTION":14.79943419,"ECCENTRICITY":7.59e-5,"INCLINATION":51.8982,"RA_OF_ASC_NODE":131.9537,"ARG_OF_PERICENTER":58.2005,"MEAN_ANOMALY":301.9031,"EPHEMERIS_TYPE":0,"CLASSIFICATION_TYPE":"U","NORAD_CAT_ID":64514,"ELEMENT_SET_NO":999,"REV_AT_EPOCH":4316,"BSTAR":0.00065606,"MEAN_MOTION_DOT":4.785e-5,"MEAN_MOTION_DDOT":0},{"OBJECT_NAME":"KUIPER-00055","OBJECT_ID":"2025-134R","EPOCH":"2026-03-29T05:19:51.168864","MEAN_MOTION":15.19773806,"ECCENTRICITY":0.0002264,"INCLINATION":51.8957,"RA_OF_ASC_NODE":87.7202,"ARG_OF_PERICENTER":71.1837,"MEAN_ANOMALY":288.9388,"EPHEMERIS_TYPE":0,"CLASSIFICATION_TYPE":"U","NORAD_CAT_ID":64515,"ELEMENT_SET_NO":999,"REV_AT_EPOCH":4379,"BSTAR":-0.018595,"MEAN_MOTION_DOT":-0.00383068,"MEAN_MOTION_DDOT":0},{"OBJECT_NAME":"KUIPER-00056","OBJECT_ID":"2025-134S","EPOCH":"2026-03-29T02:57:43.924320","MEAN_MOTION":14.79928662,"ECCENTRICITY":4.99e-5,"INCLINATION":51.9016,"RA_OF_ASC_NODE":137.1833,"ARG_OF_PERICENTER":95.6924,"MEAN_ANOMALY":264.4095,"EPHEMERIS_TYPE":0,"CLASSIFICATION_TYPE":"U","NORAD_CAT_ID":64516,"ELEMENT_SET_NO":999,"REV_AT_EPOCH":4309,"BSTAR":0.00055285,"MEAN_MOTION_DOT":3.996e-5,"MEAN_MOTION_DDOT":0},{"OBJECT_NAME":"KUIPER-00057","OBJECT_ID":"2025-134T","EPOCH":"2026-03-29T04:23:17.172960","MEAN_MOTION":14.79921999,"ECCENTRICITY":4.22e-5,"INCLINATION":51.8994,"RA_OF_ASC_NODE":144.3788,"ARG_OF_PERICENTER":81.2524,"MEAN_ANOMALY":278.8486,"EPHEMERIS_TYPE":0,"CLASSIFICATION_TYPE":"U","NORAD_CAT_ID":64517,"ELEMENT_SET_NO":999,"REV_AT_EPOCH":4299,"BSTAR":0.0007283,"MEAN_MOTION_DOT":5.334e-5,"MEAN_MOTION_DDOT":0},{"OBJECT_NAME":"KUIPER-00058","OBJECT_ID":"2025-134U","EPOCH":"2026-03-28T21:13:29.285472","MEAN_MOTION":14.79934738,"ECCENTRICITY":6.88e-5,"INCLINATION":51.9002,"RA_OF_ASC_NODE":140.6565,"ARG_OF_PERICENTER":58.8382,"MEAN_ANOMALY":301.2648,"EPHEMERIS_TYPE":0,"CLASSIFICATION_TYPE":"U","NORAD_CAT_ID":64518,"ELEMENT_SET_NO":999,"REV_AT_EPOCH":4302,"BSTAR":0.00042426,"MEAN_MOTION_DOT":3.015e-5,"MEAN_MOTION_DDOT":0},{"OBJECT_NAME":"KUIPER-00059","OBJECT_ID":"2025-134V","EPOCH":"2026-03-29T02:12:58.451616","MEAN_MOTION":14.79934639,"ECCENTRICITY":2.08e-5,"INCLINATION":51.8994,"RA_OF_ASC_NODE":134.7871,"ARG_OF_PERICENTER":318.0912,"MEAN_ANOMALY":42.0034,"EPHEMERIS_TYPE":0,"CLASSIFICATION_TYPE":"U","NORAD_CAT_ID":64519,"ELEMENT_SET_NO":999,"REV_AT_EPOCH":4312,"BSTAR":0.00053981,"MEAN_MOTION_DOT":3.897e-5,"MEAN_MOTION_DDOT":0},{"OBJECT_NAME":"KUIPER-00060","OBJECT_ID":"2025-134W","EPOCH":"2026-03-28T20:32:36.532032","MEAN_MOTION":14.79919944,"ECCENTRICITY":6.109e-5,"INCLINATION":51.9013,"RA_OF_ASC_NODE":135.8685,"ARG_OF_PERICENTER":91.4454,"MEAN_ANOMALY":268.6579,"EPHEMERIS_TYPE":0,"CLASSIFICATION_TYPE":"U","NORAD_CAT_ID":64520,"ELEMENT_SET_NO":999,"REV_AT_EPOCH":4307,"BSTAR":3.9573488e-5,"MEAN_MOTION_DOT":8.1e-7,"MEAN_MOTION_DDOT":0},{"OBJECT_NAME":"KUIPER-00061","OBJECT_ID":"2025-134X","EPOCH":"2026-03-28T21:09:36.389088","MEAN_MOTION":14.79929562,"ECCENTRICITY":5.75e-5,"INCLINATION":51.9004,"RA_OF_ASC_NODE":143.2258,"ARG_OF_PERICENTER":76.308,"MEAN_ANOMALY":283.7947,"EPHEMERIS_TYPE":0,"CLASSIFICATION_TYPE":"U","NORAD_CAT_ID":64521,"ELEMENT_SET_NO":999,"REV_AT_EPOCH":4297,"BSTAR":0.00055916,"MEAN_MOTION_DOT":4.044e-5,"MEAN_MOTION_DDOT":0},{"OBJECT_NAME":"KUIPER-00062","OBJECT_ID":"2025-134Y","EPOCH":"2026-03-28T21:05:46.315392","MEAN_MOTION":14.79885942,"ECCENTRICITY":5.98e-5,"INCLINATION":51.8954,"RA_OF_ASC_NODE":145.7618,"ARG_OF_PERICENTER":95.3216,"MEAN_ANOMALY":264.7815,"EPHEMERIS_TYPE":0,"CLASSIFICATION_TYPE":"U","NORAD_CAT_ID":64522,"ELEMENT_SET_NO":999,"REV_AT_EPOCH":4295,"BSTAR":0.00057304,"MEAN_MOTION_DOT":4.145e-5,"MEAN_MOTION_DDOT":0},{"OBJECT_NAME":"KUIPER-00063","OBJECT_ID":"2025-134Z","EPOCH":"2026-03-28T20:53:58.839360","MEAN_MOTION":14.79939,"ECCENTRICITY":3.707e-5,"INCLINATION":51.9022,"RA_OF_ASC_NODE":153.2848,"ARG_OF_PERICENTER":36.0169,"MEAN_ANOMALY":324.0819,"EPHEMERIS_TYPE":0,"CLASSIFICATION_TYPE":"U","NORAD_CAT_ID":64523,"ELEMENT_SET_NO":999,"REV_AT_EPOCH":4284,"BSTAR":0.00059085344,"MEAN_MOTION_DOT":4.287e-5,"MEAN_MOTION_DDOT":0},{"OBJECT_NAME":"KUIPER-00064","OBJECT_ID":"2025-134AA","EPOCH":"2026-03-28T20:57:53.125920","MEAN_MOTION":14.79960982,"ECCENTRICITY":4.15e-5,"INCLINATION":51.9017,"RA_OF_ASC_NODE":150.6945,"ARG_OF_PERICENTER":70.6143,"MEAN_ANOMALY":289.4864,"EPHEMERIS_TYPE":0,"CLASSIFICATION_TYPE":"U","NORAD_CAT_ID":64524,"ELEMENT_SET_NO":999,"REV_AT_EPOCH":4288,"BSTAR":0.00058158,"MEAN_MOTION_DOT":4.218e-5,"MEAN_MOTION_DDOT":0}]
