KUIPER-00047            
1 64507U 25134H   26088.14238256  .00004853  00000+0  60968-3 0  9993
2 64507  51.8985 129.6548 0001411 115.3246 244.7864 14.83621742 43194
KUIPER-00048            
1 64508U 25134J   26088.09759914  .00003965  00000+0  54943-3 0  9996
2 64508  51.8988 129.7546 0000725  63.9837 296.1200 14.79884252 43195
KUIPER-00049            
1 64509U 25134K   26087.87735395  .00004678  00000+0  58949-3 0  9991
2 64509  51.9006 143.4857 0000746 216.7802 143.3111 14.83561867 42988
KUIPER-00050            
1 64510U 25134L   26088.16668981 -.00012138  00000+0 -14905-2 0  9997
2 64510  51.8988 124.4102 0000549 136.8018  31.7276 14.81985740  4137
KUIPER-00051            
1 64511U 25134M   26088.12072072  .00004027  00000+0  55680-3 0  9996
2 64511  51.8999 139.6820 0001147  89.2205 270.8889 14.79943702 43058
KUIPER-00053            
1 64513U 25134P   26088.15677347  .00002517  00000+0  35863-3 0  9990
2 64513  51.9005 137.0105 0000444 305.2531  54.8389 14.79982580 43095
KUIPER-00054            
1 64514U 25134Q   26088.16256486  .00004785  00000+0  65606-3 0  9996
2 64514  51.8982 131.9537 0000759  58.2005 301.9031 14.79943419 43167
KUIPER-00055            
1 64515U 25134R   26088.22212001 -.00383068  00000+0 -18595-1 0  9998
2 64515  51.8957  87.7202 0002264  71.1837 288.9388 15.19773806 43791
KUIPER-00056            
1 64516U 25134S   26088.12342505  .00003996  00000+0  55285-3 0  9997
2 64516  51.9016 137.1833 0000499  95.6924 264.4095 14.79928662 43099
KUIPER-00057            
1 64517U 25134T   26088.18283765  .00005334  00000+0  72830-3 0  9999
2 64517  51.8994 144.3788 0000422  81.2524 278.8486 14.79921999 42993
KUIPER-00058            
1 64518U 25134U   26087.88436673  .00003015  00000+0  42426-3 0  9996
2 64518  51.9002 140.6565 0000688  58.8382 301.2648 14.79934738 43024
KUIPER-00059            
1 64519U 25134V   26088.09234319  .00003897  00000+0  53981-3 0  9990
2 64519  51.8994 134.7871 0000208 318.0912  42.0034 14.79934639 43126
KUIPER-00060            
1 64520U 25134W   26087.85597838  .00000081  00000+0  39573-4 0  9997
2 64520  51.9013 135.8685 0000610  91.4454 268.6579 14.79919944 43072
KUIPER-00061            
1 64521U 25134X   26087.88167117  .00004044  00000+0  55916-3 0  9995
2 64521  51.9004 143.2258 0000575  76.3080 283.7947 14.79929562 42971
KUIPER-00062            
1 64522U 25134Y   26087.87900828  .00004145  00000+0  57304-3 0  9994
2 64522  51.8954 145.7618 0000598  95.3216 264.7815 14.79885942 42953
KUIPER-00063            
1 64523U 25134Z   26087.87081990  .00004287  00000+0  59085-3 0  9990
2 64523  51.9022 153.2848 0000370  36.0169 324.0819 14.79939000 42844
KUIPER-00064            
1 64524U 25134AA  26087.87353155  .00004218  00000+0  58158-3 0  9990
2 64524  51.9017 150.6945 0000415  70.6143 289.4864 14.79960982 42885
